satname,norad_id,inclination_deg,eccentricity,mean_motion_rev_per_day,perigee_km,apogee_km,l1,l2
STARLINK-1446,45663,53.0254,0.0005998,15.40206576,441.40629846541196,449.5919323494545,1 45663U 20035G   26011.43412688  .00020445  00000+0  50961-3 0  9998,2 45663  53.0254 270.7955 0005998  94.9695 265.1993 15.40206576310840
STARLINK-1448,45665,53.0547,0.0001118,15.12087877,529.0613911020773,530.6060133510946,1 45665U 20035J   26011.66667824  .00032450  00000+0  18724-2 0  9998,2 45665  53.0547 322.5233 0001118  98.9757 111.7942 15.12087877  5745
STARLINK-1451,45668,53.0552,0.0002659,15.07113461,543.1848964241653,546.8666343828081,1 45668U 20035M   26011.23840752  .00034201  00000+0  22598-2 0  9997,2 45668  53.0552 324.8167 0002659  95.4209 264.7084 15.07113461310074
STARLINK-1452,45669,53.0375,0.0003673,15.35498498,456.9287771642985,461.9516613895785,1 45669U 20035N   26011.05388906  .00048733  00000+0  13943-2 0  9995,2 45669  53.0375 294.2845 0003673 137.0523 223.0766 15.35498498310487
STARLINK-1453,45670,53.0541,0.0006687,15.40256278,440.7894542642589,449.91518888293194,1 45670U 20035P   26011.05127329  .00071677  00000+0  17469-2 0  9997,2 45670  53.0541 288.3419 0006687 111.9905 248.1810 15.40256278310457
STARLINK-1454,45671,53.0538,8.76e-05,15.09681142,536.5677669868019,537.7793293948453,1 45671U 20035Q   26011.66667824  .01937093  00000+0  10893+0 0  9999,2 45671  53.0538 322.5898 0000876  46.6840 351.2357 15.09681142  5744
STARLINK-1456,45673,53.0561,0.0006621,15.3854979,445.8757487293533,454.91809334759273,1 45673U 20035S   26011.01665369  .00077068  00000+0  19842-2 0  9994,2 45673  53.0561 320.6534 0006621  91.7301 268.4461 15.38549790310114
STARLINK-1457,45674,53.052,0.0014252,15.5519903,391.9116911160645,411.2365797364837,1 45674U 20035T   26011.53712940  .00040582  00000+0  59182-3 0  9993,2 45674  53.0520 304.6677 0014252  79.4684 280.7931 15.55199030310358
STARLINK-1458,45675,53.0558,0.000154,15.06429487,546.0546962436911,548.1876757649807,1 45675U 20035U   26011.27432826  .00022945  00000+0  15531-2 0  9999,2 45675  53.0558 324.3656 0001540  84.1069 276.0096 15.06429487310046
STARLINK-1460,45676,53.0555,0.0001598,15.06402353,546.097676794413,548.3110158887039,1 45676U 20035V   26011.57657130  .00001072  00000+0  90828-4 0  9992,2 45676  53.0555 323.0088 0001598  89.8065 270.3107 15.06402353310087
STARLINK-1392,45677,53.0545,0.0001416,15.06379988,546.2922544742478,548.2535305558085,1 45677U 20035W   26011.58763350  .00001423  00000+0  11443-3 0  9991,2 45677  53.0545 322.9609 0001416  91.6313 268.4838 15.06379988310121
STARLINK-1394,45679,53.0543,0.0005243,15.39284053,444.64614039132084,451.8042637964363,1 45679U 20035Y   26011.51351859  .00054988  00000+0  13894-2 0  9998,2 45679  53.0543 308.3234 0005243  98.2475 261.9124 15.39284053310329
STARLINK-1402,45685,53.0531,0.0010015,15.35636545,452.1830111206764,465.8778574915923,1 45685U 20035AE  26011.16111750  .00051011  00000+0  14502-2 0  9991,2 45685  53.0531 295.3743 0010015  72.1663 288.0431 15.35636545310487
STARLINK-1404,45686,53.0549,0.0001411,15.06404146,546.2216861859679,548.1760159631403,1 45686U 20035AF  26011.21258678  .00001109  00000+0  93348-4 0  9999,2 45686  53.0549 314.6446 0001411  93.7883 266.3268 15.06404146310211
STARLINK-1413,45689,53.0553,0.0001386,15.06413379,546.2107059067694,548.1304011606089,1 45689U 20035AJ  26011.23101525 -.00000121  00000+0  10761-4 0  9994,2 45689  53.0553 314.5588 0001386  81.5308 278.5838 15.06413379310129
STARLINK-1417,45693,53.0534,0.0006878,15.09373757,533.3553918190646,542.8693844774007,1 45693U 20035AN  26011.24366532  .00020931  00000+0  13094-2 0  9991,2 45693  53.0534 313.9791 0006878  71.2423 288.9313 15.09373757310218
STARLINK-1420,45695,53.0559,0.0001696,15.07260888,543.4002242876186,545.748407966049,1 45695U 20035AQ  26011.29399013  .00183733  00000+0  11760-1 0  9995,2 45695  53.0559 294.2645 0001696  60.5785 299.5374 15.07260888310506
STARLINK-1422,45696,53.0554,0.0001017,15.06431255,546.4114693145912,547.8200657275056,1 45696U 20035AR  26011.57008810  .00004894  00000+0  34693-3 0  9991,2 45696  53.0554 313.0392 0001017 123.1764 236.9323 15.06431255310259
STARLINK-1351,45697,53.0543,0.0002047,15.17246129,512.7570635771863,515.5787732107774,1 45697U 20035AS  26011.66667824  .00089556  00000+0  44069-2 0  9993,2 45697  53.0543 291.9900 0002047 110.2513 143.1403 15.17246129  5817
STARLINK-1398,45699,53.0448,0.000673,15.67748814,360.80640048827627,369.88312694223623,1 45699U 20035AU  26011.01808302  .00091518  00000+0  81403-3 0  9997,2 45699  53.0448 228.6570 0006730 125.4910 234.6734 15.67748814311406
STARLINK-1400,45700,53.0538,0.0001614,15.10280742,534.227282566595,536.4589539487688,1 45700U 20035AV  26011.66667824  .01932878  00000+0  10696+0 0  9999,2 45700  53.0538 292.5776 0001614  62.3772  23.9650 15.10280742  5740
STARLINK-1403,45701,53.0532,0.0001358,15.06388468,546.3064349489396,548.1873692167446,1 45701U 20035AW  26011.48350564  .00014354  00000+0  98085-3 0  9991,2 45701  53.0532 293.4271 0001358  84.5811 275.5333 15.06388468310527
STARLINK-1407,45703,53.0382,0.000424,15.49114644,416.4326540884749,422.1968931925212,1 45703U 20035AY  26011.03130359  .00102651  00000+0  18415-2 0  9998,2 45703  53.0382 234.4277 0004240 265.5821  94.4702 15.49114644311325
STARLINK-1411,45706,53.0476,0.0002579,15.52377957,408.03470580535213,411.53591613335084,1 45706U 20035BB  26010.98074891  .00059174  00000+0  95401-3 0  9994,2 45706  53.0476 261.2264 0002579 150.1286 209.9870 15.52377957310930
STARLINK-1423,45710,53.0536,0.0001227,15.1275729,526.9482881138392,528.6430039851793,1 45710U 20035BF  26011.66667824  .00752435  00000+0  39772-1 0  9996,2 45710  53.0536 292.5073 0001227  99.6421  84.1353 15.12757290  5819
STARLINK-1433,45711,53.0539,0.0001322,15.14532225,521.4867995482109,523.3113012799395,1 45711U 20035BG  26011.66667824  .01925800  00000+0  93291-1 0  9992,2 45711  53.0539 292.5038 0001322 108.4286 179.9077 15.14532225  5815
STARLINK-1434,45712,53.0513,0.0003807,15.20468228,501.8070689531223,507.047453381575,1 45712U 20035BH  26011.16942486  .00035043  00000+0  15918-2 0  9999,2 45712  53.0513 285.1779 0003807  56.2306 303.9051 15.20468228310628
STARLINK-1465,45731,53.0534,0.0001593,15.1218394,528.4407488272127,530.6415350832385,1 45731U 20038B   26011.66667824  .00047857  00000+0  27401-2 0  9994,2 45731  53.0534 132.5156 0001593  71.6041  27.7328 15.12183940  5819
STARLINK-1471,45735,53.0498,0.000241,15.44570743,430.99825380415314,434.2810481499246,1 45735U 20038F   26011.39712850  .00025823  00000+0  55411-3 0  9990,2 45735  53.0498  55.6072 0002410  62.6119 297.5132 15.44570743308664
STARLINK-1474,45738,53.0305,0.0005502,15.84662746,313.5907149091672,320.95834575714434,1 45738U 20038J   26011.66667824  .00153060  00000+0  64014-3 0  9997,2 45738  53.0305 354.7247 0005502  91.1766 155.9409 15.84662746  5893
STARLINK-1480,45741,53.0524,0.0003957,15.38471412,447.9266978981568,453.3309831843617,1 45741U 20038M   26011.66667824  .00115913  00000+0  29729-2 0  9999,2 45741  53.0524 128.1339 0003957 355.8663 290.4188 15.38471412  5822
STARLINK-1500,45744,53.0387,0.0003171,15.31530987,469.0719218451868,473.41579918692514,1 45744U 20038Q   26011.50617853  .00028091  00000+0  91825-3 0  9999,2 45744  53.0387 100.3057 0003171  64.2416 295.8911 15.31530987308045
STARLINK-1504,45746,53.0254,0.0003508,15.49210641,416.6495199565243,421.41841510734594,1 45746U 20038S   26011.40674710  .00039268  00000+0  71283-3 0  9999,2 45746  53.0254  57.6937 0003508  31.9194 328.2025 15.49210641308621
STARLINK-1506,45747,53.0799,0.0003974,15.23999183,491.0614344748574,496.5232439136489,1 45747U 20038T   26011.65100805  .00008680  00000+0  36703-3 0  9998,2 45747  53.0799 105.8047 0003974  78.5821 281.5623 15.23999183307985
STARLINK-1464,45751,53.0545,0.0001626,15.12076058,528.7464572916997,530.9929410702725,1 45751U 20038X   26011.66667824  .00051373  00000+0  29475-2 0  9997,2 45751  53.0545 112.5184 0001626  84.7699 102.6448 15.12076058  5810
STARLINK-1477,45754,53.0511,0.0002402,15.1096478,531.5962818420576,534.9165152307141,1 45754U 20038AA  26011.54379907  .00019265  00000+0  11559-2 0  9997,2 45754  53.0511 111.9824 0002402 193.6697 166.4230 15.10964780307886
STARLINK-1478,45755,53.0545,0.0001362,15.34827946,460.500040816989,462.36313930092183,1 45755U 20038AB  26011.66667824  .01698430  00000+0  44828-1 0  9991,2 45755  53.0545 110.9836 0001362  93.2084 344.1900 15.34827946  5809
STARLINK-1484,45756,53.0104,0.0004662,15.76458288,337.3524313121234,343.61687414112566,1 45756U 20038AC  26011.20331875  .00137738  00000+0  84145-3 0  9992,2 45756  53.0104 348.2192 0004662  79.6800 280.4744 15.76458288309576
STARLINK-1493,45759,53.0546,2.29e-05,15.07103756,544.8969454178232,545.2140276337059,1 45759U 20038AF  26011.59546078  .00104422  00000+0  67957-2 0  9995,2 45759  53.0546 112.9173 0000229 303.3226  56.7741 15.07103756307860
STARLINK-1494,45760,53.0512,0.0001384,15.6131261,382.9286443087258,384.8003663253967,1 45760U 20038AG  26011.66667824  .00427789  00000+0  46903-2 0  9990,2 45760  53.0512  72.8837 0001384  62.3210 355.2149 15.61312610  5780
STARLINK-1502,45764,53.0545,0.0001989,15.08431018,539.6175506536902,542.3699808723113,1 45764U 20038AL  26011.66667824  .00071561  00000+0  45188-2 0  9991,2 45764  53.0545 112.5940 0001989  75.0946 134.8876 15.08431018  5698
STARLINK-1470,45772,53.0453,0.0001992,15.23315803,494.47811460906905,497.2167099989301,1 45772U 20038AU  26011.41185339  .00025684  00000+0  10784-2 0  9998,2 45772  53.0453  79.1390 0001992 145.9819 214.1305 15.23315803308338
STARLINK-1482,45773,53.056,0.0001262,15.06408444,546.3117026933087,548.0596541373397,1 45773U 20038AV  26011.59408260  .00002595  00000+0  19296-3 0  9993,2 45773  53.0560  92.9309 0001262 102.1210 257.9920 15.06408444308154
